[Satellite]
VERSION=1.1
NAME=THAICOM 6
NICKNAME=THAICOM 6
TLE1=1 39500U 14002A   17186.02410455 -.00000126  00000-0  00000-0 0  9998
TLE2=2 39500   0.0613 127.7528 0003905 352.0860 250.5557  1.00272239 12662
